[{"OBJECT_NAME":"STARLINK-5794","OBJECT_ID":"2023-042W","EPOCH":"2026-03-09T00:23:42.562176","MEAN_MOTION":15.02534429,"ECCENTRICITY":6.895e-5,"INCLINATION":43.0014,"RA_OF_ASC_NODE":59.3729,"ARG_OF_PERICENTER":256.3296,"MEAN_ANOMALY":103.7469,"EPHEMERIS_TYPE":0,"CLASSIFICATION_TYPE":"U","NORAD_CAT_ID":56006,"ELEMENT_SET_NO":999,"REV_AT_EPOCH":16281,"BSTAR":-1.0557403e-5,"MEAN_MOTION_DOT":-3.46e-6,"MEAN_MOTION_DDOT":0},{"OBJECT_NAME":"PEGASUS R\/B","OBJECT_ID":"1998-071B","EPOCH":"2026-03-09T18:27:50.570784","MEAN_MOTION":15.03047703,"ECCENTRICITY":0.0004531,"INCLINATION":69.9123,"RA_OF_ASC_NODE":198.9358,"ARG_OF_PERICENTER":7.5622,"MEAN_ANOMALY":352.5606,"EPHEMERIS_TYPE":0,"CLASSIFICATION_TYPE":"U","NORAD_CAT_ID":25561,"ELEMENT_SET_NO":999,"REV_AT_EPOCH":48091,"BSTAR":0.00030278547,"MEAN_MOTION_DOT":3.992e-5,"MEAN_MOTION_DDOT":0}]
